start=new Date('2023-02-17T00:00:00.000Z').valueOf();
sats=[{"BSTAR":"0.00136620000000","MEAN_MOTION_DDOT":"0.0000000000000","REF_FRAME":"TEME","FILE":"3799178","SITE":"AFETR","PERIAPSIS":"546.571","COUNTRY_CODE":"US","RA_OF_ASC_NODE":"225.1979","MEAN_ANOMALY":"258.4876","ECCENTRICITY":"0.00008980","CLASSIFICATION_TYPE":"U","EPOCH":"2023-02-16T20:56:02.785344","CENTER_NAME":"EARTH","MEAN_MOTION":"15.06406876","GP_ID":"225684816","ARG_OF_PERICENTER":"101.6213","INCLINATION":"53.0535","SEMIMAJOR_AXIS":"6925.327","MEAN_ELEMENT_THEORY":"SGP4","NORAD_CAT_ID":"47791","LAUNCH_DATE":"2021-03-11","TLE_LINE1":"1 47791U 21018E   23047.87225446  .00020130  00000-0  13662-2 0  9990","APOAPSIS":"547.814","PERIOD":"95.592","EPHEMERIS_TYPE":"0","TLE_LINE2":"2 47791  53.0535 225.1979 0000898 101.6213 258.4876 15.06406876108276","MEAN_MOTION_DOT":"0.00020130","OBJECT_NAME":"STARLINK-2322","REV_AT_EPOCH":"10827","OBJECT_ID":"2021-018E","RCS_SIZE":"LARGE","TIME_SYSTEM":"UTC","ELEMENT_SET_NO":"999","DECAY_DATE":null,"OBJECT_TYPE":"PAYLOAD"},{"EPOCH":"2023-02-16T21:14:37.078368","CENTER_NAME":"EARTH","GP_ID":"225683566","MEAN_MOTION":"15.06419179","RA_OF_ASC_NODE":"205.1504","ECCENTRICITY":"0.00009050","CLASSIFICATION_TYPE":"U","MEAN_ANOMALY":"287.3096","COUNTRY_CODE":"US","SITE":"AFETR","PERIAPSIS":"546.528","FILE":"3799178","MEAN_MOTION_DDOT":"0.0000000000000","BSTAR":"0.00120470000000","REF_FRAME":"TEME","DECAY_DATE":null,"OBJECT_TYPE":"PAYLOAD","RCS_SIZE":"LARGE","ELEMENT_SET_NO":"999","TIME_SYSTEM":"UTC","OBJECT_NAME":"STARLINK-2334","REV_AT_EPOCH":"10855","OBJECT_ID":"2021-018F","MEAN_MOTION_DOT":"0.00017717","TLE_LINE2":"2 47792  53.0509 205.1504 0000905  72.7992 287.3096 15.06419179108557","PERIOD":"95.591","APOAPSIS":"547.782","EPHEMERIS_TYPE":"0","LAUNCH_DATE":"2021-03-11","TLE_LINE1":"1 47792U 21018F   23047.88515137  .00017717  00000-0  12047-2 0  9994","MEAN_ELEMENT_THEORY":"SGP4","SEMIMAJOR_AXIS":"6925.290","NORAD_CAT_ID":"47792","INCLINATION":"53.0509","ARG_OF_PERICENTER":"72.7992"},{"RA_OF_ASC_NODE":"205.3820","MEAN_ANOMALY":"273.7501","ECCENTRICITY":"0.00009430","CLASSIFICATION_TYPE":"U","EPOCH":"2023-02-16T20:00:18.666432","CENTER_NAME":"EARTH","MEAN_MOTION":"15.06420528","GP_ID":"225684317","COUNTRY_CODE":"US","SITE":"AFETR","PERIAPSIS":"546.498","BSTAR":"0.00224770000000","MEAN_MOTION_DDOT":"0.0000000000000","REF_FRAME":"TEME","FILE":"3799178","RCS_SIZE":"LARGE","TIME_SYSTEM":"UTC","ELEMENT_SET_NO":"999","DECAY_DATE":null,"OBJECT_TYPE":"PAYLOAD","TLE_LINE2":"2 47793  53.0511 205.3820 0000943  86.3595 273.7501 15.06420528108534","MEAN_MOTION_DOT":"0.00033376","OBJECT_NAME":"STARLINK-2338","REV_AT_EPOCH":"10853","OBJECT_ID":"2021-018G","LAUNCH_DATE":"2021-03-11","TLE_LINE1":"1 47793U 21018G   23047.83354938  .00033376  00000-0  22477-2 0  9997","APOAPSIS":"547.804","PERIOD":"95.591","EPHEMERIS_TYPE":"0","INCLINATION":"53.0511","ARG_OF_PERICENTER":"86.3595","NORAD_CAT_ID":"47793","SEMIMAJOR_AXIS":"6925.286","MEAN_ELEMENT_THEORY":"SGP4"},{"COUNTRY_CODE":"US","RA_OF_ASC_NODE":"206.5570","MEAN_ANOMALY":"271.7863","CLASSIFICATION_TYPE":"U","ECCENTRICITY":"0.00009460","CENTER_NAME":"EARTH","EPOCH":"2023-02-16T13:43:29.038368","MEAN_MOTION":"15.06390447","GP_ID":"225684568","BSTAR":"0.00003713500000","MEAN_MOTION_DDOT":"0.0000000000000","REF_FRAME":"TEME","FILE":"3799178","SITE":"AFETR","PERIAPSIS":"546.588","TLE_LINE2":"2 47794  53.0518 206.5570 0000946  88.3234 271.7863 15.06390447108504","MEAN_MOTION_DOT":"0.00000272","OBJECT_NAME":"STARLINK-2341","REV_AT_EPOCH":"10850","OBJECT_ID":"2021-018H","RCS_SIZE":"LARGE","TIME_SYSTEM":"UTC","ELEMENT_SET_NO":"999","DECAY_DATE":null,"OBJECT_TYPE":"PAYLOAD","INCLINATION":"53.0518","ARG_OF_PERICENTER":"88.3234","MEAN_ELEMENT_THEORY":"SGP4","SEMIMAJOR_AXIS":"6925.378","NORAD_CAT_ID":"47794","LAUNCH_DATE":"2021-03-11","TLE_LINE1":"1 47794U 21018H   23047.57186387  .00000272  00000-0  37135-4 0  9998","APOAPSIS":"547.898","PERIOD":"95.593","EPHEMERIS_TYPE":"0"},{"LAUNCH_DATE":"2021-03-11","TLE_LINE1":"1 47795U 21018J   23047.69348515  .00013497  00000-0  92295-3 0  9995","APOAPSIS":"547.492","PERIOD":"95.591","EPHEMERIS_TYPE":"0","ARG_OF_PERICENTER":"95.7506","INCLINATION":"53.0507","NORAD_CAT_ID":"47795","SEMIMAJOR_AXIS":"6925.310","MEAN_ELEMENT_THEORY":"SGP4","RCS_SIZE":"LARGE","TIME_SYSTEM":"UTC","ELEMENT_SET_NO":"999","DECAY_DATE":null,"OBJECT_TYPE":"PAYLOAD","TLE_LINE2":"2 47795  53.0507 206.0103 0000459  95.7506 264.3535 15.06412704108575","MEAN_MOTION_DOT":"0.00013497","REV_AT_EPOCH":"10857","OBJECT_NAME":"STARLINK-2347","OBJECT_ID":"2021-018J","SITE":"AFETR","PERIAPSIS":"546.857","BSTAR":"0.00092295000000","MEAN_MOTION_DDOT":"0.0000000000000","REF_FRAME":"TEME","FILE":"3799178","RA_OF_ASC_NODE":"206.0103","MEAN_ANOMALY":"264.3535","CLASSIFICATION_TYPE":"U","ECCENTRICITY":"0.00004590","EPOCH":"2023-02-16T16:38:37.116960","CENTER_NAME":"EARTH","MEAN_MOTION":"15.06412704","GP_ID":"225685317","COUNTRY_CODE":"US"},{"GP_ID":"225648391","MEAN_MOTION":"15.06400869","CENTER_NAME":"EARTH","EPOCH":"2023-02-16T16:59:51.046080","CLASSIFICATION_TYPE":"U","ECCENTRICITY":"0.00006750","MEAN_ANOMALY":"285.6798","RA_OF_ASC_NODE":"205.9437","COUNTRY_CODE":"US","PERIAPSIS":"546.743","SITE":"AFETR","FILE":"3798498","REF_FRAME":"TEME","MEAN_MOTION_DDOT":"0.0000000000000","BSTAR":"0.00008581300000","OBJECT_TYPE":"PAYLOAD","DECAY_DATE":null,"ELEMENT_SET_NO":"999","TIME_SYSTEM":"UTC","RCS_SIZE":"LARGE","OBJECT_ID":"2021-018K","REV_AT_EPOCH":"10817","OBJECT_NAME":"STARLINK-2373","MEAN_MOTION_DOT":"0.00000997","TLE_LINE2":"2 47796  53.0543 205.9437 0000675  74.4265 285.6798 15.06400869108172","EPHEMERIS_TYPE":"0","PERIOD":"95.592","APOAPSIS":"547.678","TLE_LINE1":"1 47796U 21018K   23047.70822970  .00000997  00000-0  85813-4 0  9990","LAUNCH_DATE":"2021-03-11","SEMIMAJOR_AXIS":"6925.346","MEAN_ELEMENT_THEORY":"SGP4","NORAD_CAT_ID":"47796","ARG_OF_PERICENTER":"74.4265","INCLINATION":"53.0543"},{"FILE":"3798293","REF_FRAME":"TEME","BSTAR":"0.00065473000000","MEAN_MOTION_DDOT":"0.0000000000000","PERIAPSIS":"546.344","SITE":"AFETR","COUNTRY_CODE":"US","MEAN_MOTION":"15.06408860","GP_ID":"225639800","EPOCH":"2023-02-16T05:07:57.132480","CENTER_NAME":"EARTH","MEAN_ANOMALY":"278.6724","CLASSIFICATION_TYPE":"U","ECCENTRICITY":"0.00012170","RA_OF_ASC_NODE":"233.1620","NORAD_CAT_ID":"47797","SEMIMAJOR_AXIS":"6925.321","MEAN_ELEMENT_THEORY":"SGP4","INCLINATION":"53.0518","ARG_OF_PERICENTER":"81.4403","EPHEMERIS_TYPE":"0","APOAPSIS":"548.029","PERIOD":"95.592","TLE_LINE1":"1 47797U 21018L   23047.21385570  .00009486  00000-0  65473-3 0  9998","LAUNCH_DATE":"2021-03-11","OBJECT_ID":"2021-018L","OBJECT_NAME":"STARLINK-2377","REV_AT_EPOCH":"10809","TLE_LINE2":"2 47797  53.0518 233.1620 0001217  81.4403 278.6724 15.06408860108098","MEAN_MOTION_DOT":"0.00009486","OBJECT_TYPE":"PAYLOAD","DECAY_DATE":null,"TIME_SYSTEM":"UTC","ELEMENT_SET_NO":"999","RCS_SIZE":"LARGE"},{"INCLINATION":"53.0536","ARG_OF_PERICENTER":"77.6525","SEMIMAJOR_AXIS":"6925.325","MEAN_ELEMENT_THEORY":"SGP4","NORAD_CAT_ID":"47798","LAUNCH_DATE":"2021-03-11","TLE_LINE1":"1 47798U 21018M   23047.85197483  .00001597  00000-0  12602-3 0  9994","PERIOD":"95.592","APOAPSIS":"547.913","EPHEMERIS_TYPE":"0","MEAN_MOTION_DOT":"0.00001597","TLE_LINE2":"2 47798  53.0536 205.2977 0001044  77.6525 282.4581 15.06407676108542","OBJECT_NAME":"STARLINK-2379","REV_AT_EPOCH":"10854","OBJECT_ID":"2021-018M","RCS_SIZE":"LARGE","ELEMENT_SET_NO":"999","TIME_SYSTEM":"UTC","DECAY_DATE":null,"OBJECT_TYPE":"PAYLOAD","MEAN_MOTION_DDOT":"0.0000000000000","BSTAR":"0.00012602000000","REF_FRAME":"TEME","FILE":"3799178","SITE":"AFETR","PERIAPSIS":"546.467","COUNTRY_CODE":"US","RA_OF_ASC_NODE":"205.2977","ECCENTRICITY":"0.00010440","CLASSIFICATION_TYPE":"U","MEAN_ANOMALY":"282.4581","CENTER_NAME":"EARTH","EPOCH":"2023-02-16T20:26:50.625312","GP_ID":"225685069","MEAN_MOTION":"15.06407676"},{"SEMIMAJOR_AXIS":"6925.416","MEAN_ELEMENT_THEORY":"SGP4","NORAD_CAT_ID":"47799","INCLINATION":"53.0557","ARG_OF_PERICENTER":"86.6552","APOAPSIS":"547.967","PERIOD":"95.594","EPHEMERIS_TYPE":"0","LAUNCH_DATE":"2021-03-11","TLE_LINE1":"1 47799U 21018N   23047.71562871 -.00002216  00000-0 -13004-3 0  9995","OBJECT_NAME":"STARLINK-2380","REV_AT_EPOCH":"10851","OBJECT_ID":"2021-018N","TLE_LINE2":"2 47799  53.0557 205.9037 0000990  86.6552 273.4550 15.06377964108518","MEAN_MOTION_DOT":"-0.00002216","DECAY_DATE":null,"OBJECT_TYPE":"PAYLOAD","RCS_SIZE":"LARGE","TIME_SYSTEM":"UTC","ELEMENT_SET_NO":"999","FILE":"3799178","BSTAR":"-0.00013004000000","MEAN_MOTION_DDOT":"0.0000000000000","REF_FRAME":"TEME","SITE":"AFETR","PERIAPSIS":"546.595","COUNTRY_CODE":"US","EPOCH":"2023-02-16T17:10:30.320544","CENTER_NAME":"EARTH","MEAN_MOTION":"15.06377964","GP_ID":"225684817","RA_OF_ASC_NODE":"205.9037","MEAN_ANOMALY":"273.4550","CLASSIFICATION_TYPE":"U","ECCENTRICITY":"0.00009900"},{"INCLINATION":"53.0525","ARG_OF_PERICENTER":"83.6959","SEMIMAJOR_AXIS":"6925.417","MEAN_ELEMENT_THEORY":"SGP4","NORAD_CAT_ID":"47800","TLE_LINE1":"1 47800U 21018P   23047.87042730 -.00000404  00000-0 -82244-5 0  9993","LAUNCH_DATE":"2021-03-11","EPHEMERIS_TYPE":"0","APOAPSIS":"548.124","PERIOD":"95.594","TLE_LINE2":"2 47800  53.0525 205.2164 0001216  83.6959 276.4168 15.06377619108548","MEAN_MOTION_DOT":"-0.00000404","OBJECT_ID":"2021-018P","REV_AT_EPOCH":"10854","OBJECT_NAME":"STARLINK-2381","TIME_SYSTEM":"UTC","ELEMENT_SET_NO":"999","RCS_SIZE":"LARGE","OBJECT_TYPE":"PAYLOAD","DECAY_DATE":null,"REF_FRAME":"TEME","BSTAR":"-0.00000822440000","MEAN_MOTION_DDOT":"0.0000000000000","FILE":"3799178","PERIAPSIS":"546.440","SITE":"AFETR","COUNTRY_CODE":"US","MEAN_ANOMALY":"276.4168","CLASSIFICATION_TYPE":"U","ECCENTRICITY":"0.00012160","RA_OF_ASC_NODE":"205.2164","MEAN_MOTION":"15.06377619","GP_ID":"225683567","CENTER_NAME":"EARTH","EPOCH":"2023-02-16T20:53:24.918720"}];
